NORAD_CAT_ID,OBJECT_NAME,OBJECT_TYPE,EPOCH,MEAN_MOTION,ECCENTRICITY,INCLINATION,RA_OF_ASC_NODE,ARG_OF_PERICENTER,MEAN_ANOMALY,BSTAR,MEAN_MOTION_DOT,MEAN_MOTION_DDOT,TLE_LINE0,TLE_LINE1,TLE_LINE2,SEMIMAJOR_AXIS,PERIOD,APOGEE,PERIGEE,DECAYED
52453.0,STARLINK-3872,PAYLOAD,2023-06-21 11:52:07,15.08845019,0.0001019,53.2159,203.2585,86.3447,273.7662,7.39e-05,8.89e-06,0.0,0 STARLINK-3872,1 52453U 22049C   23172.49452855  .00000889  00000-0  73900-4 0  9991,2 52453  53.2159 203.2585 0001019  86.3447 273.7662 15.08845019 62488,6917.865,95.437,540.435,539.025,0.0
52453.0,STARLINK-3872,PAYLOAD,2023-06-22 02:10:35,15.08839642,0.0001095,53.2155,200.5812,92.5544,267.5574,-5.4758e-06,-3.75e-06,0.0,0 STARLINK-3872,1 52453U 22049C   23173.09069343 -.00000375  00000-0 -54758-5 0  9997,2 52453  53.2155 200.5812 0001095  92.5544 267.5574 15.08839642 62576,6917.881,95.438,540.504,538.989,0.0
52453.0,STARLINK-3872,PAYLOAD,2023-06-23 08:22:55,15.08839526,0.0001052,53.2159,194.9319,89.9641,270.1472,2.6763e-05,1.38e-06,0.0,0 STARLINK-3872,1 52453U 22049C   23174.34925327  .00000138  00000-0  26763-4 0  9998,2 52453  53.2159 194.9319 0001052  89.9641 270.1472 15.08839526 62768,6917.882,95.438,540.475,539.019,0.0
52453.0,STARLINK-3872,PAYLOAD,2023-06-24 09:49:05,15.08838588,0.0001026,53.2158,190.1743,87.8564,272.2546,7.197e-05,8.58e-06,0.0,0 STARLINK-3872,1 52453U 22049C   23175.40909461  .00000858  00000-0  71970-4 0  9996,2 52453  53.2158 190.1743 0001026  87.8564 272.2546 15.08838588 62928,6917.885,95.438,540.459,539.04,0.0
52453.0,STARLINK-3872,PAYLOAD,2023-06-26 01:33:44,15.08836468,0.0001044,53.2158,182.74,87.6013,272.5098,2.5355e-05,1.16e-06,0.0,0 STARLINK-3872,1 52453U 22049C   23177.06509994  .00000116  00000-0  25355-4 0  9990,2 52453  53.2158 182.7400 0001044  87.6013 272.5098 15.08836468 63170,6917.891,95.438,540.478,539.034,0.0
52453.0,STARLINK-3872,PAYLOAD,2023-06-27 09:21:27,15.08841584,0.0001052,53.2158,176.7926,87.9999,272.1114,6.6758e-05,7.75e-06,0.0,0 STARLINK-3872,1 52453U 22049C   23178.38989631  .00000775  00000-0  66758-4 0  9999,2 52453  53.2158 176.7926 0001052  87.9999 272.1114 15.08841584 63373,6917.876,95.437,540.468,539.013,0.0
52453.0,STARLINK-3872,PAYLOAD,2023-06-28 17:09:09,15.08840078,0.0001033,53.216,170.8452,88.1244,271.9867,4.8794e-05,4.89e-06,0.0,0 STARLINK-3872,1 52453U 22049C   23179.71469736  .00000489  00000-0  48794-4 0  9998,2 52453  53.2160 170.8452 0001033  88.1244 271.9867 15.08840078 63571,6917.88,95.438,540.46,539.031,0.0
52453.0,STARLINK-3872,PAYLOAD,2023-06-29 18:35:20,15.08837044,0.0001056,53.2158,166.0878,89.3179,270.7934,1.3736e-05,-6.9e-07,0.0,0 STARLINK-3872,1 52453U 22049C   23180.77454022 -.00000069  00000-0  13736-4 0  9991,2 52453  53.2158 166.0878 0001056  89.3179 270.7934 15.08837044 63731,6917.889,95.438,540.485,539.024,0.0
52453.0,STARLINK-3872,PAYLOAD,2023-07-01 08:44:36,15.08833617,0.0001037,53.216,158.9514,90.5434,269.5677,-7.5569e-06,-4.08e-06,0.0,0 STARLINK-3872,1 52453U 22049C   23182.36430629 -.00000408  00000-0 -75569-5 0  9996,2 52453  53.2160 158.9514 0001037  90.5434 269.5677 15.08833617 63976,6917.9,95.438,540.482,539.048,0.0
52453.0,STARLINK-3872,PAYLOAD,2023-07-02 05:24:36,15.08839381,0.000102,53.2162,155.0857,89.0874,271.0235,6.65e-05,7.71e-06,0.0,0 STARLINK-3872,1 52453U 22049C   23183.22542244  .00000771  00000-0  66500-4 0  9994,2 52453  53.2162 155.0857 0001020  89.0874 271.0235 15.08839381 64107,6917.882,95.438,540.453,539.042,0.0
52453.0,STARLINK-3872,PAYLOAD,2023-07-04 01:55:24,15.08837458,0.0001079,53.2163,146.7603,89.2479,270.8637,2.5116e-06,-2.48e-06,0.0,0 STARLINK-3872,1 52453U 22049C   23185.08014856 -.00000248  00000-0  25116-5 0  9992,2 52453  53.2163 146.7603 0001079  89.2479 270.8637 15.08837458 64387,6917.888,95.438,540.5,539.007,0.0
52453.0,STARLINK-3872,PAYLOAD,2023-07-05 03:21:35,15.0883928,0.0001165,53.2163,142.0016,90.3113,269.8013,4.1846e-06,-2.21e-06,0.0,0 STARLINK-3872,1 52453U 22049C   23186.13998843 -.00000221  00000-0  41846-5 0  9995,2 52453  53.2163 142.0016 0001165  90.3113 269.8013 15.08839280 64547,6917.883,95.438,540.554,538.942,0.0
52453.0,STARLINK-3872,PAYLOAD,2023-07-06 06:23:07,15.08843148,0.0001187,53.2164,136.9458,91.8036,268.3092,6.2785e-05,7.12e-06,0.0,0 STARLINK-3872,1 52453U 22049C   23187.26606430  .00000712  00000-0  62785-4 0  9996,2 52453  53.2164 136.9458 0001187  91.8036 268.3092 15.08843148 64712,6917.871,95.437,540.557,538.915,0.0
52453.0,STARLINK-3872,PAYLOAD,2023-07-08 02:53:56,15.08838242,0.0001246,53.2162,128.6207,84.9019,275.2116,-2.6191e-05,-7.05e-06,0.0,0 STARLINK-3872,1 52453U 22049C   23189.12079078 -.00000705  00000-0 -26191-4 0  9990,2 52453  53.2162 128.6207 0001246  84.9019 275.2116 15.08838242 64993,6917.886,95.438,540.613,538.889,0.0
52453.0,STARLINK-3872,PAYLOAD,2023-07-09 04:20:06,15.08829787,0.0001233,53.2174,123.863,90.1149,269.9985,5.643e-05,6.1e-06,0.0,0 STARLINK-3872,1 52453U 22049C   23190.18063563  .00000610  00000-0  56430-4 0  9992,2 52453  53.2174 123.8630 0001233  90.1149 269.9985 15.08829787 65159,6917.912,95.438,540.63,538.924,0.0
52453.0,STARLINK-3872,PAYLOAD,2023-07-10 04:10:53,15.08839535,0.0001146,53.2168,119.4026,90.5329,269.5795,7.8533e-05,9.62e-06,0.0,0 STARLINK-3872,1 52453U 22049C   23191.17423376  .00000962  00000-0  78533-4 0  9992,2 52453  53.2168 119.4026 0001146  90.5329 269.5795 15.08839535 65303,6917.882,95.438,540.54,538.954,0.0
52453.0,STARLINK-3872,PAYLOAD,2023-07-11 18:20:08,15.08848842,0.0001097,53.2169,112.2651,94.0685,266.0432,0.0001423,1.978e-05,0.0,0 STARLINK-3872,1 52453U 22049C   23192.76398633  .00001978  00000-0  14230-3 0  9996,2 52453  53.2169 112.2651 0001097  94.0685 266.0432 15.08848842 65545,6917.853,95.437,540.477,538.959,0.0
52453.0,STARLINK-3872,PAYLOAD,2023-07-12 03:52:28,15.08835675,0.0001219,53.217,110.4811,93.7191,266.394,-5.075e-05,-1.095e-05,0.0,0 STARLINK-3872,1 52453U 22049C   23193.16144045 -.00001095  00000-0 -50750-4 0  9997,2 52453  53.2170 110.4811 0001219  93.7191 266.3940 15.08835675 65603,6917.894,95.438,540.602,538.915,0.0
52453.0,STARLINK-3872,PAYLOAD,2023-07-13 18:01:43,15.08828482,0.0001235,53.2162,103.3435,94.5653,265.548,5.823e-05,6.39e-06,0.0,0 STARLINK-3872,1 52453U 22049C   23194.75120149  .00000639  00000-0  58230-4 0  9994,2 52453  53.2162 103.3435 0001235  94.5653 265.5480 15.08828482 65841,6917.916,95.438,540.635,538.926,0.0
52453.0,STARLINK-3872,PAYLOAD,2023-07-15 00:14:02,15.08854891,0.0001322,53.2177,97.6937,88.4409,271.6734,6.9752e-05,8.23e-06,0.0,0 STARLINK-3872,1 52453U 22049C   23196.00974810  .00000823  00000-0  69752-4 0  9992,2 52453  53.2177  97.6937 0001322  88.4409 271.6734 15.08854891 66032,6917.835,95.437,540.614,538.785,0.0
52453.0,STARLINK-3872,PAYLOAD,2023-07-15 17:43:18,15.08831617,0.0001205,53.2181,94.4231,96.4533,263.6596,7.6732e-06,-1.66e-06,0.0,0 STARLINK-3872,1 52453U 22049C   23196.73840471 -.00000166  00000-0  76732-5 0  9995,2 52453  53.2181  94.4231 0001205  96.4533 263.6596 15.08831617 66146,6917.906,95.438,540.605,538.937,0.0
52453.0,STARLINK-3872,PAYLOAD,2023-07-17 01:31:00,15.08844655,0.0001347,53.2189,88.4795,109.5639,250.5498,-3.4326e-05,-8.34e-06,0.0,0 STARLINK-3872,1 52453U 22049C   23198.06320146 -.00000834  00000-0 -34326-4 0  9990,2 52453  53.2189  88.4795 0001347 109.5639 250.5498 15.08844655 66346,6917.866,95.437,540.663,538.799,0.0
52453.0,STARLINK-3872,PAYLOAD,2023-07-19 01:12:34,15.08839484,0.0001336,53.2175,79.5576,95.7453,264.3691,7.725e-05,9.42e-06,0.0,0 STARLINK-3872,1 52453U 22049C   23200.05040411  .00000942  00000-0  77250-4 0  9998,2 52453  53.2175  79.5576 0001336  95.7453 264.3691 15.08839484 66642,6917.882,95.438,540.671,538.823,0.0
52453.0,STARLINK-3872,PAYLOAD,2023-07-20 15:21:50,15.08840483,0.0001306,53.2178,72.4213,78.6436,281.4702,6.3561e-05,7.24e-06,0.0,0 STARLINK-3872,1 52453U 22049C   23201.64016928  .00000724  00000-0  63561-4 0  9998,2 52453  53.2178  72.4213 0001306  78.6436 281.4702 15.08840483 66883,6917.879,95.438,540.647,538.84,0.0
52453.0,STARLINK-3872,PAYLOAD,2023-07-24 13:09:35,15.0883736,0.0001225,53.2167,54.874,92.5077,267.6055,0.00012042,1.629e-05,0.0,0 STARLINK-3872,1 52453U 22049C   23205.54833129  .00001629  00000-0  12042-3 0  9993,2 52453  53.2167  54.8740 0001225  92.5077 267.6055 15.08837360 67312,6917.888,95.438,540.601,538.906,0.0
52453.0,STARLINK-3872,PAYLOAD,2023-07-25 13:00:23,15.08833391,0.0001008,53.2187,50.4126,95.9523,264.1584,2.7952e-05,1.57e-06,0.0,0 STARLINK-3872,1 52453U 22049C   23206.54193317  .00000157  00000-0  27952-4 0  9994,2 52453  53.2187  50.4126 0001008  95.9523 264.1584 15.08833391 67461,6917.901,95.438,540.463,539.068,0.0
52453.0,STARLINK-3872,PAYLOAD,2023-07-26 00:08:04,15.08837978,0.0001222,53.2159,48.3307,88.2872,271.826,5.8092e-05,6.37e-06,0.0,0 STARLINK-3872,1 52453U 22049C   23207.00561295  .00000637  00000-0  58092-4 0  9992,2 52453  53.2159  48.3307 0001222  88.2872 271.8260 15.08837978 67536,6917.887,95.438,540.597,538.906,0.0
52453.0,STARLINK-3872,PAYLOAD,2023-07-26 16:01:56,15.0884427,8.99e-05,53.2167,45.3571,97.5413,262.5681,1.545e-05,-4.2e-07,0.0,0 STARLINK-3872,1 52453U 22049C   23207.66800940 -.00000042  00000-0  15450-4 0  9999,2 52453  53.2167  45.3571 0000899  97.5413 262.5681 15.08844270 67793,6917.867,95.437,540.354,539.11,0.0
52453.0,STARLINK-3872,PAYLOAD,2023-07-27 06:20:24,15.08836772,9.44e-05,53.2163,42.6788,102.4665,257.6432,0.00049036,7.524e-05,0.0,0 STARLINK-3872,1 52453U 22049C   23208.26417347  .00007524  00000-0  49036-3 0  9998,2 52453  53.2163  42.6788 0000944 102.4665 257.6432 15.08836772 67882,6917.89,95.438,540.408,539.102,0.0
52453.0,STARLINK-3872,PAYLOAD,2023-07-27 19:03:29,15.08837485,0.0001361,53.216,40.3014,91.8843,268.2305,5.4126e-05,5.74e-06,0.0,0 STARLINK-3872,1 52453U 22049C   23208.79409479  .00000574  00000-0  54126-4 0  9998,2 52453  53.2160  40.3014 0001361  91.8843 268.2305 15.08837485 67800,6917.888,95.438,540.695,538.812,0.0
